GALAXY 25 (G-25)        
1 24812U 97026A   24165.60867784 -.00000268  00000+0  00000+0 0  9990
2 24812   5.5322  76.1524 0011806 350.3396 210.4452  0.99095698 98950
INTELSAT 5 (IS-5)       
1 24916U 97046A   24165.46684884 -.00000059  00000+0  00000+0 0  9997
2 24916   8.7947  55.5064 0002475  74.4007 106.5606  1.00271864 98262
GALAXY 11 (G-11)        
1 26038U 99071A   24165.46684884 -.00000048  00000+0  00000+0 0  9992
2 26038   4.8464  79.3079 0000214 300.6480 216.6580  1.00272462 89728
INTELSAT 9 (IS-9)       
1 26451U 00043A   24165.35465851  .00000044  00000+0  00000+0 0  9996
2 26451   8.7795  55.7008 0002271  34.3964 304.3140  1.00380126 36782
INTELSAT 1R (IS-1R)     
1 26608U 00072A   24165.61029531 -.00000132  00000+0  00000+0 0  9991
2 26608   6.2584  72.7646 0000198 101.3162 105.1222  1.00271594 33966
INTELSAT 10 (IS-10)     
1 26766U 01019A   24164.66996953 -.00000357  00000+0  00000+0 0  9992
2 26766   7.3144  66.6956 0003113  22.7070 171.2339  1.00129044 38257
INTELSAT 901 (IS-901)   
1 26824U 01024A   24165.29007633 -.00000194  00000+0  00000+0 0  9990
2 26824   0.0270 100.7532 0000870 334.9216 263.3439  1.00271920 15620
INTELSAT 902 (IS-902)   
1 26900U 01039A   24165.22896479 -.00000276  00000+0  00000+0 0  9999
2 26900   4.2520  80.6885 0004728  22.8851 190.7994  1.00272630 83331
INTELSAT 904 (IS-904)   
1 27380U 02007A   24165.14007639 -.00000208  00000+0  00000+0 0  9996
2 27380   5.0709  77.8888 0002936  16.4801 188.4926  1.00272122 44406
DIRECTV 5 (TEMPO 1)     
1 27426U 02023A   24165.51642698 -.00000048  00000+0  00000+0 0  9998
2 27426   2.9925  84.4839 0003658  12.4614 241.1495  1.00272140 80760
INTELSAT 905 (IS-905)   
1 27438U 02027A   24165.09493845 -.00000179  00000+0  00000+0 0  9991
2 27438   4.8965  78.5478 0002732 351.8819 201.1469  1.00272815 44003
GALAXY 3C (G-3C)        
1 27445U 02030A   24165.40674437 -.00000144  00000+0  00000+0 0  9998
2 27445   1.8350  86.8641 0003214  32.4261 194.5080  1.00271790 39132
INTELSAT 906 (IS-906)   
1 27513U 02041A   24165.44652031  .00000021  00000+0  00000+0 0  9999
2 27513   3.9280  81.9359 0003837 357.8828  47.3090  1.00271791 79679
GALAXY 23 (G-23)        
1 27854U 03034A   24165.62521914  .00000021  00000+0  00000+0 0  9995
2 27854   1.2974  89.0994 0002717 357.2492 280.2621  1.00272232 76383
GALAXY 13 (HORIZONS-1)  
1 27954U 03044A   24164.45983601  .00000137  00000+0  00000+0 0  9990
2 27954   0.0258  43.1004 0000889 338.4884 255.1804  1.00275301 39207
INTELSAT 10-02          
1 28358U 04022A   24165.57672889 -.00000002  00000+0  00000+0 0  9995
2 28358   0.0171 356.0831 0000956  72.0274  40.8900  1.00270544 73201
XM-3 (RHYTHM)           
1 28626U 05008A   24165.34493924 -.00000197  00000+0  00000+0 0  9999
2 28626   0.0176 256.8080 0004230 330.5213  73.8191  1.00272991 35261
DIRECTV 8               
1 28659U 05019A   24165.48880892  .00000010  00000+0  00000+0 0  9999
2 28659   0.0183  62.2094 0002924  17.7481 239.2473  1.00272019 69717
GALAXY 28 (G-28)        
1 28702U 05022A   24165.55923734 -.00000176  00000+0  00000+0 0  9997
2 28702   1.4018  88.0046 0000771 180.9310 105.7422  1.00271357 44621
GALAXY 14 (G-14)        
1 28790U 05030A   24165.58342963  .00000163  00000+0  00000+0 0  9990
2 28790   3.1223  83.8772 0001632 346.2578  75.1603  1.00272427 68956
SPACEWAY 2              
1 28903U 05046B   24165.32132663  .00000110  00000+0  00000+0 0  9991
2 28903   3.6062  80.3442 0000131 311.6121 206.9421  1.00272971 43989
GALAXY 16 (G-16)        
1 29236U 06023A   24165.52715316 -.00000118  00000+0  00000+0 0  9990
2 29236   0.0390 121.0869 0002849 326.8744 265.1094  1.00272891 65615
DIRECTV 9S              
1 29494U 06043A   24165.52570753 -.00000104  00000+0  00000+0 0  9997
2 29494   0.5216  89.5016 0002933 349.8100 271.0649  1.00272084 44028
GALAXY 17 (G-17)        
1 31307U 07016B   24165.56002054 -.00000197  00000+0  00000+0 0  9994
2 31307   1.1083  89.4079 0004200  13.0520 276.4825  1.00271834 62449
DIRECTV 10              
1 31862U 07032A   24165.52454093 -.00000094  00000+0  00000+0 0  9994
2 31862   0.0046 175.1311 0000298  15.2194 158.0204  1.00269781 38232
INTELSAT 11 (IS-11)     
1 32253U 07044B   24165.22410653 -.00000261  00000+0  00000+0 0  9999
2 32253   1.6548  87.8359 0003116   0.6139 211.2416  1.00273007 61139
HORIZONS-2              
1 32388U 07063B   24165.56228314 -.00000244  00000+0  00000+0 0  9998
2 32388   0.7030  89.6994 0001874 355.8424 305.4245  1.00269936 60456
DIRECTV 11              
1 32729U 08013A   24165.52699539 -.00000117  00000+0  00000+0 0  9999
2 32729   0.0434 156.8741 0000551  16.6281 179.3641  1.00271885 38232
GALAXY 18 (G-18)        
1 32951U 08024A   24165.62255226  .00000034  00000+0  00000+0 0  9997
2 32951   0.0144  56.2543 0002939  27.5461 279.7208  1.00271422 38492
INTELSAT 25 (IS-25)     
1 33153U 08034A   24165.49896020 -.00000215  00000+0  00000+0 0  9993
2 33153   0.8104  89.3273 0002966 354.0539 327.0399  1.00272692 58335
GALAXY 19 (G-19)        
1 33376U 08045A   24165.52945802 -.00000130  00000+0  00000+0 0  9995
2 33376   0.0124 303.4547 0002819 139.7973 272.6641  1.00273007 57545
FM-5                    
1 35493U 09034A   24165.41667156 -.00000192  00000+0  00000+0 0  9995
2 35493   0.0130 311.1712 0000941 298.0107  76.8742  1.00271561 39286
INTELSAT 14 (IS-14)     
1 36097U 09064A   24165.19632869 -.00000266  00000+0  00000+0 0  9999
2 36097   0.0107  30.6054 0002296  49.2061 207.8560  1.00270561 53248
INTELSAT 15 (IS-15)     
1 36106U 09067A   24165.59945470 -.00000176  00000+0  00000+0 0  9992
2 36106   0.0173 317.3751 0002370 137.1028 108.8588  1.00270836 33876
DIRECTV 12              
1 36131U 09075A   24165.41230175 -.00000095  00000+0  00000+0 0  9999
2 36131   0.0383 154.1147 0000253 164.1783 349.6154  1.00270440 39207
INTELSAT 16 (IS-16)     
1 36397U 10006A   24165.41867307 -.00000236  00000+0  00000+0 0  9999
2 36397   0.0094 328.9435 0002376 145.9362 221.8428  1.00270531 52299
XM-5                    
1 37185U 10053A   24165.51274579 -.00000014  00000+0  00000+0 0  9995
2 37185   0.0150  52.0753 0000261 175.7990 103.8192  1.00272004 50129
INTELSAT 17 (IS-17)     
1 37238U 10065B   24165.62757476  .00000007  00000+0  00000+0 0  9992
2 37238   0.0083 332.4096 0003028 129.4281  92.5072  1.00271277 45880
INTELSAT NEW DAWN       
1 37392U 11016A   24165.58342963  .00000164  00000+0  00000+0 0  9990
2 37392   0.0133   0.6148 0001248  51.8878  92.7004  1.00270843 45932
INTELSAT 18 (IS-18)     
1 37834U 11056A   24165.56995500  .00000061  00000+0  00000+0 0  9990
2 37834   0.0188 326.2575 0001815 107.5295 213.7495  1.00271470 46450
INTELSAT 22 (IS-22)     
1 38098U 12011A   24165.44808674 -.00000051  00000+0  00000+0 0  9997
2 38098   0.0161 325.3937 0002168 118.6293  51.6136  1.00273999 44456
INTELSAT 19 (IS-19)     
1 38356U 12030A   24165.49424448 -.00000048  00000+0  00000+0 0  9999
2 38356   0.0171   0.8913 0002853  84.9506 160.3797  1.00272075 43089
INTELSAT 20 (IS-20)     
1 38740U 12043A   24165.44739054 -.00000016  00000+0  00000+0 0  9992
2 38740   0.0047  75.5250 0001650 108.1044 308.1676  1.00271138 43392
INTELSAT 21 (IS-21)     
1 38749U 12045A   24165.27913069 -.00000277  00000+0  00000+0 0  9993
2 38749   0.0194 328.4073 0001684 126.3247 209.8228  1.00270573 43168
INTELSAT 23 (IS-23)     
1 38867U 12057A   24165.27991390 -.00000277  00000+0  00000+0 0  9990
2 38867   0.0325 241.8776 0001082 152.4632 275.5177  1.00271607 42580
FM-6                    
1 39360U 13058A   24165.51167015 -.00000008  00000+0  00000+0 0  9999
2 39360   0.0308  41.1466 0000254 278.6421  10.5440  1.00272431 38709
INTELSAT 30 (IS-30)     
1 40271U 14062A   24164.91390469 -.00000144  00000+0  00000+0 0  9993
2 40271   0.0104   7.0325 0001767 332.3822 156.2378  1.00270317 35238
DIRECTV 14              
1 40333U 14078B   24165.52699556 -.00000117  00000+0  00000+0 0  9996
2 40333   0.0107 318.3772 0000090 358.4247  36.0054  1.00272059 34704
DIRECTV 15              
1 40663U 15026A   24165.52454039 -.00000093  00000+0  00000+0 0  9994
2 40663   0.0271  77.6554 0000511 120.8746 149.7418  1.00269586 33119
SKY MEXICO-1            
1 40664U 15026B   24164.41619109 -.00000229  00000+0  00000+0 0  9994
2 40664   0.0141 306.3646 0001907 135.8978 250.0215  1.00270731 33084
INTELSAT 34 (IS-34)     
1 40874U 15039A   24165.56567701 -.00000277  00000+0  00000+0 0  9991
2 40874   0.0222   9.1159 0000783 341.5868  59.8105  1.00270323 32268
INTELSAT 31 (IS-31)     
1 41581U 16035A   24163.98362008 -.00000147  00000+0  00000+0 0  9997
2 41581   0.0120  54.3264 0000735 143.5742 321.9420  1.00270624 29328
INTELSAT 36 (IS-36)     
1 41747U 16053A   24164.66004896 -.00000019  00000+0  00000+0 0  9993
2 41747   0.0122  12.4530 0002142 349.9811 205.1367  1.00271365 28581
INTELSAT 33E (IS-33E)   
1 41748U 16053B   24165.57214090  .00000057  00000+0  00000+0 0  9995
2 41748   0.0121  43.8610 0001910  25.2798  99.1994  1.00273470 28898
INTELSAT 32E (IS-32E)   
1 41945U 17007B   24165.14979747 -.00000262  00000+0  00000+0 0  9993
2 41945   0.0180  61.5853 0000303 269.6117 301.4831  1.00269547 26866
INTELSAT 35E (IS-35E)   
1 42818U 17041A   24164.73938365 -.00000233  00000+0  00000+0 0  9994
2 42818   0.0152   1.7981 0001773  77.4488  53.9799  1.00267769 25451
INTELSAT 37E (IS-37E)   
1 42950U 17059A   24165.45772571 -.00000132  00000+0  00000+0 0  9993
2 42950   0.0016   7.5784 0002370  90.0337 311.4248  1.00271993 24702
AZERSPACE 2 (IS-38)     
1 43632U 18074A   24165.58586626  .00000145  00000+0  00000+0 0  9990
2 43632   0.0174  17.4862 0001320  70.4939  70.4132  1.00272558 21097
HORIZONS-3E             
1 43633U 18074B   24165.49424448 -.00000022  00000+0  00000+0 0  9999
2 43633   0.0466 190.5675 0000837  97.4916 321.1440  1.00272604 20980
AT&T T-16               
1 44333U 19034A   24165.41230175 -.00000107  00000+0  00000+0 0  9992
2 44333   0.0031  27.7212 0001059 270.0237  12.0150  1.00270198 18275
INTELSAT 39 (IS-39)     
1 44476U 19049B   24165.51767007  .00000042  00000+0  00000+0 0  9993
2 44476   0.0188 344.3593 0000543 350.7623 175.4861  1.00271347 17772
GALAXY 30 (G-30)        
1 46114U 20056C   24165.62239918  .00000046  00000+0  00000+0 0  9995
2 46114   0.0151 339.3707 0001997  99.9744 282.1167  1.00273724 13934
GALAXY 33 (G-33)        
1 54026U 22128A   24165.61370161  .00000088  00000+0  00000+0 0  9999
2 54026   0.0175 329.7718 0001802 113.9210 266.6403  1.00272077  6398
GALAXY 34 (G-34)        
1 54027U 22128B   24165.23960455  .00000066  00000+0  00000+0 0  9995
2 54027   0.0213 352.6945 0001497  95.7533 130.9139  1.00270649  6554
GALAXY 31 (G-31)        
1 54243U 22153A   24165.40337264  .00000022  00000+0  00000+0 0  9990
2 54243   0.0159 339.1719 0001379  95.9768 211.2622  1.00270529  5773
GALAXY 32 (G-32)        
1 54244U 22153B   24165.31091200 -.00000166  00000+0  00000+0 0  9998
2 54244   0.0088   1.8574 0002114  41.4214 239.7443  1.00271160  5786
GALAXY 35 (G-35)        
1 54741U 22170A   24165.31091200 -.00000154  00000+0  00000+0 0  9996
2 54741   0.0013  11.3869 0001859  91.5415 177.9974  1.00271438  5536
GALAXY 36 (G-36)        
1 54742U 22170B   24165.55923734 -.00000176  00000+0  00000+0 0  9993
2 54742   0.0188  75.7218 0002784  16.4555 282.4980  1.00272666  5411
GALAXY 37 (G-37)        
1 57493U 23112A   24165.54641650  .00000057  00000+0  00000+0 0  9996
2 57493   0.0111   4.5835 0001870  72.1611 255.3044  1.00272976  3181
